{
  "type": "Feature",
  "properties": {
    "name": "MVP-002 coverage outline",
    "source": "docs/architecture/mapoutline.png"
  },
  "geometry": {
    "type": "Polygon",
    "coordinates": [
      [
        [
          12.851001566243195,
          56.25429030555556
        ],
        [
          12.85075447186933,
          56.252627989197535
        ],
        [
          12.854049063520872,
          56.24278887345679
        ],
        [
          12.85577872413793,
          56.24027293518518
        ],
        [
          12.859814598911072,
          56.236499027777775
        ],
        [
          12.865168310344828,
          56.23308454012346
        ],
        [
          12.868709996370237,
          56.22917585030864
        ],
        [
          12.871757493647914,
          56.22674976697531
        ],
        [
          12.876781745916515,
          56.22823237345679
        ],
        [
          12.880982350272232,
          56.2302541095679
        ],
        [
          12.886006602540835,
          56.23182657098766
        ],
        [
          12.889548288566244,
          56.234477291666664
        ],
        [
          12.893501798548094,
          56.23986858796296
        ],
        [
          12.893666528130671,
          56.241800469135804
        ],
        [
          12.892760515426497,
          56.24759611265432
        ],
        [
          12.89317233938294,
          56.251549729938276
        ],
        [
          12.891360313974591,
          56.251504802469135
        ],
        [
          12.880076337568058,
          56.248943936728395
        ],
        [
          12.875134450090744,
          56.248764226851854
        ],
        [
          12.872581141560799,
          56.24939321141975
        ],
        [
          12.871839858439202,
          56.25015697839506
        ],
        [
          12.870357292196008,
          56.25029176080247
        ],
        [
          12.86854526678766,
          56.25105552777778
        ],
        [
          12.860720611615246,
          56.25231349691358
        ],
        [
          12.85932041016334,
          56.25285262654321
        ],
        [
          12.858496762250454,
          56.25375117592593
        ],
        [
          12.856767101633395,
          56.254245378086424
        ],
        [
          12.853307780399275,
          56.2544700154321
        ],
        [
          12.851001566243195,
          56.25429030555556
        ]
      ]
    ]
  }
}
